HELIOS 2A               
1 28492U 04049A   24154.18278586  .00002953  00000+0  25833-3 0  9995
2 28492  98.3188 146.6829 0011749 243.2367 116.7651 14.97557208 42055
SPIRALE A               
1 33751U 09008C   24153.19622082  .00001149  00000+0  12688-2 0  9992
2 33751   2.0538 291.3055 5542056 173.4282 199.0458  4.59632789227660
SPIRALE B               
1 33752U 09008D   24152.91943395  .00005533  00000+0  11040-2 0  9997
2 33752   1.9925  77.4268 6784444 220.7489  60.2191  2.93101778145671
SAPPHIRE                
1 39088U 13009C   24153.52012683  .00000204  00000+0  87222-4 0  9993
2 39088  98.4110 340.7246 0010417 313.7225  46.3097 14.34696476589635
